CCSDS_OMM_VERS = 2.0
CREATION_DATE  = 
ORIGINATOR     = 

OBJECT_NAME    = 2026-052F
OBJECT_ID      = 2026-052F
CENTER_NAME    = EARTH
REF_FRAME      = TEME
TIME_SYSTEM    = UTC
MEAN_ELEMENT_THEORY = SGP/SGP4

EPOCH          = 2026-04-03T15:10:34.394592
MEAN_MOTION    = 15.10794559
ECCENTRICITY   = .00106572
INCLINATION    = 97.5347
RA_OF_ASC_NODE = 169.6080
ARG_OF_PERICENTER = 194.7777
MEAN_ANOMALY   = 165.3143

EPHEMERIS_TYPE = 0
CLASSIFICATION_TYPE = U
NORAD_CAT_ID   = 68203
ELEMENT_SET_NO = 999
REV_AT_EPOCH   = 279
BSTAR          = .81092895E-3
MEAN_MOTION_DOT = .13435E-3
MEAN_MOTION_DDOT = 0

CCSDS_OMM_VERS = 2.0
CREATION_DATE  = 
ORIGINATOR     = 

OBJECT_NAME    = 2026-052G
OBJECT_ID      = 2026-052G
CENTER_NAME    = EARTH
REF_FRAME      = TEME
TIME_SYSTEM    = UTC
MEAN_ELEMENT_THEORY = SGP/SGP4

EPOCH          = 2026-04-03T15:09:43.586208
MEAN_MOTION    = 15.10840463
ECCENTRICITY   = .00101782
INCLINATION    = 97.5361
RA_OF_ASC_NODE = 169.6043
ARG_OF_PERICENTER = 197.6580
MEAN_ANOMALY   = 162.4298

EPHEMERIS_TYPE = 0
CLASSIFICATION_TYPE = U
NORAD_CAT_ID   = 68204
ELEMENT_SET_NO = 999
REV_AT_EPOCH   = 279
BSTAR          = .80318709E-3
MEAN_MOTION_DOT = .13321E-3
MEAN_MOTION_DDOT = 0

CCSDS_OMM_VERS = 2.0
CREATION_DATE  = 
ORIGINATOR     = 

OBJECT_NAME    = KZ-11 R/B
OBJECT_ID      = 2026-052H
CENTER_NAME    = EARTH
REF_FRAME      = TEME
TIME_SYSTEM    = UTC
MEAN_ELEMENT_THEORY = SGP/SGP4

EPOCH          = 2026-04-03T15:10:11.034624
MEAN_MOTION    = 14.67598235
ECCENTRICITY   = .05441471
INCLINATION    = 97.3404
RA_OF_ASC_NODE = 168.3958
ARG_OF_PERICENTER = 313.1279
MEAN_ANOMALY   = 42.5610

EPHEMERIS_TYPE = 0
CLASSIFICATION_TYPE = U
NORAD_CAT_ID   = 68205
ELEMENT_SET_NO = 999
REV_AT_EPOCH   = 271
BSTAR          = .47258439E-3
MEAN_MOTION_DOT = .31527E-3
MEAN_MOTION_DDOT = .2044312E-5

CCSDS_OMM_VERS = 2.0
CREATION_DATE  = 
ORIGINATOR     = 

OBJECT_NAME    = 2026-052J
OBJECT_ID      = 2026-052J
CENTER_NAME    = EARTH
REF_FRAME      = TEME
TIME_SYSTEM    = UTC
MEAN_ELEMENT_THEORY = SGP/SGP4

EPOCH          = 2026-04-03T14:58:57.145728
MEAN_MOTION    = 14.69113206
ECCENTRICITY   = .05385468
INCLINATION    = 97.3401
RA_OF_ASC_NODE = 168.4047
ARG_OF_PERICENTER = 313.1345
MEAN_ANOMALY   = 42.5993

EPHEMERIS_TYPE = 0
CLASSIFICATION_TYPE = U
NORAD_CAT_ID   = 68206
ELEMENT_SET_NO = 999
REV_AT_EPOCH   = 271
BSTAR          = .14145808E-2
MEAN_MOTION_DOT = .97189E-3
MEAN_MOTION_DDOT = .3360331E-5

CCSDS_OMM_VERS = 2.0
CREATION_DATE  = 
ORIGINATOR     = 

OBJECT_NAME    = STARLINK-36986
OBJECT_ID      = 2026-053A
CENTER_NAME    = EARTH
REF_FRAME      = TEME
TIME_SYSTEM    = UTC
MEAN_ELEMENT_THEORY = SGP/SGP4

EPOCH          = 2026-04-03T14:39:45.529632
MEAN_MOTION    = 15.80795772
ECCENTRICITY   = .00018994
INCLINATION    = 97.2830
RA_OF_ASC_NODE = 329.1298
ARG_OF_PERICENTER = 67.7626
MEAN_ANOMALY   = 292.3844

EPHEMERIS_TYPE = 0
CLASSIFICATION_TYPE = U
NORAD_CAT_ID   = 68207
ELEMENT_SET_NO = 999
REV_AT_EPOCH   = 399
BSTAR          = .70188277E-3
MEAN_MOTION_DOT = .136301E-2
MEAN_MOTION_DDOT = 0

CCSDS_OMM_VERS = 2.0
CREATION_DATE  = 
ORIGINATOR     = 

OBJECT_NAME    = STARLINK-37009
OBJECT_ID      = 2026-053B
CENTER_NAME    = EARTH
REF_FRAME      = TEME
TIME_SYSTEM    = UTC
MEAN_ELEMENT_THEORY = SGP/SGP4

EPOCH          = 2026-04-03T14:38:40.627680
MEAN_MOTION    = 15.80778284
ECCENTRICITY   = .00020985
INCLINATION    = 97.2833
RA_OF_ASC_NODE = 329.1294
ARG_OF_PERICENTER = 89.3560
MEAN_ANOMALY   = 270.7949

EPHEMERIS_TYPE = 0
CLASSIFICATION_TYPE = U
NORAD_CAT_ID   = 68208
ELEMENT_SET_NO = 999
REV_AT_EPOCH   = 399
BSTAR          = .75024966E-3
MEAN_MOTION_DOT = .145748E-2
MEAN_MOTION_DDOT = 0

CCSDS_OMM_VERS = 2.0
CREATION_DATE  = 
ORIGINATOR     = 

OBJECT_NAME    = STARLINK-36948
OBJECT_ID      = 2026-053C
CENTER_NAME    = EARTH
REF_FRAME      = TEME
TIME_SYSTEM    = UTC
MEAN_ELEMENT_THEORY = SGP/SGP4

EPOCH          = 2026-04-03T14:37:35.775840
MEAN_MOTION    = 15.80809599
ECCENTRICITY   = .00019661
INCLINATION    = 97.2830
RA_OF_ASC_NODE = 329.1313
ARG_OF_PERICENTER = 105.8482
MEAN_ANOMALY   = 254.3003

EPHEMERIS_TYPE = 0
CLASSIFICATION_TYPE = U
NORAD_CAT_ID   = 68209
ELEMENT_SET_NO = 999
REV_AT_EPOCH   = 397
BSTAR          = .83493194E-3
MEAN_MOTION_DOT = .162763E-2
MEAN_MOTION_DDOT = 0

CCSDS_OMM_VERS = 2.0
CREATION_DATE  = 
ORIGINATOR     = 

OBJECT_NAME    = STARLINK-37119
OBJECT_ID      = 2026-053D
CENTER_NAME    = EARTH
REF_FRAME      = TEME
TIME_SYSTEM    = UTC
MEAN_ELEMENT_THEORY = SGP/SGP4

EPOCH          = 2026-04-03T14:36:30.887712
MEAN_MOTION    = 15.80810650
ECCENTRICITY   = .00024763
INCLINATION    = 97.2830
RA_OF_ASC_NODE = 329.1321
ARG_OF_PERICENTER = 106.7942
MEAN_ANOMALY   = 253.3598

EPHEMERIS_TYPE = 0
CLASSIFICATION_TYPE = U
NORAD_CAT_ID   = 68210
ELEMENT_SET_NO = 999
REV_AT_EPOCH   = 399
BSTAR          = .78568951E-3
MEAN_MOTION_DOT = .152998E-2
MEAN_MOTION_DDOT = 0

CCSDS_OMM_VERS = 2.0
CREATION_DATE  = 
ORIGINATOR     = 

OBJECT_NAME    = STARLINK-37120
OBJECT_ID      = 2026-053E
CENTER_NAME    = EARTH
REF_FRAME      = TEME
TIME_SYSTEM    = UTC
MEAN_ELEMENT_THEORY = SGP/SGP4

EPOCH          = 2026-04-03T14:35:25.937376
MEAN_MOTION    = 15.80797746
ECCENTRICITY   = .00018549
INCLINATION    = 97.2830
RA_OF_ASC_NODE = 329.1328
ARG_OF_PERICENTER = 103.6519
MEAN_ANOMALY   = 256.4956

EPHEMERIS_TYPE = 0
CLASSIFICATION_TYPE = U
NORAD_CAT_ID   = 68211
ELEMENT_SET_NO = 999
REV_AT_EPOCH   = 397
BSTAR          = .69396052E-3
MEAN_MOTION_DOT = .134748E-2
MEAN_MOTION_DDOT = 0

CCSDS_OMM_VERS = 2.0
CREATION_DATE  = 
ORIGINATOR     = 

OBJECT_NAME    = STARLINK-37117
OBJECT_ID      = 2026-053F
CENTER_NAME    = EARTH
REF_FRAME      = TEME
TIME_SYSTEM    = UTC
MEAN_ELEMENT_THEORY = SGP/SGP4

EPOCH          = 2026-04-03T14:34:21.066528
MEAN_MOTION    = 15.80791751
ECCENTRICITY   = .00020253
INCLINATION    = 97.2830
RA_OF_ASC_NODE = 329.1340
ARG_OF_PERICENTER = 96.7409
MEAN_ANOMALY   = 263.4090

EPHEMERIS_TYPE = 0
CLASSIFICATION_TYPE = U
NORAD_CAT_ID   = 68212
ELEMENT_SET_NO = 999
REV_AT_EPOCH   = 399
BSTAR          = .58485081E-3
MEAN_MOTION_DOT = .11323E-2
MEAN_MOTION_DDOT = 0

CCSDS_OMM_VERS = 2.0
CREATION_DATE  = 
ORIGINATOR     = 

OBJECT_NAME    = STARLINK-37116
OBJECT_ID      = 2026-053G
CENTER_NAME    = EARTH
REF_FRAME      = TEME
TIME_SYSTEM    = UTC
MEAN_ELEMENT_THEORY = SGP/SGP4

EPOCH          = 2026-04-03T14:33:16.036704
MEAN_MOTION    = 15.80755888
ECCENTRICITY   = .00017203
INCLINATION    = 97.2833
RA_OF_ASC_NODE = 329.1350
ARG_OF_PERICENTER = 95.5114
MEAN_ANOMALY   = 264.6350

EPHEMERIS_TYPE = 0
CLASSIFICATION_TYPE = U
NORAD_CAT_ID   = 68213
ELEMENT_SET_NO = 999
REV_AT_EPOCH   = 399
BSTAR          = .79658496E-3
MEAN_MOTION_DOT = .154755E-2
MEAN_MOTION_DDOT = 0

CCSDS_OMM_VERS = 2.0
CREATION_DATE  = 
ORIGINATOR     = 

OBJECT_NAME    = STARLINK-35854
OBJECT_ID      = 2026-053H
CENTER_NAME    = EARTH
REF_FRAME      = TEME
TIME_SYSTEM    = UTC
MEAN_ELEMENT_THEORY = SGP/SGP4

EPOCH          = 2026-04-03T14:32:09.750624
MEAN_MOTION    = 15.80977073
ECCENTRICITY   = .0002371
INCLINATION    = 97.2827
RA_OF_ASC_NODE = 329.1358
ARG_OF_PERICENTER = 136.6050
MEAN_ANOMALY   = 223.5405

EPHEMERIS_TYPE = 0
CLASSIFICATION_TYPE = U
NORAD_CAT_ID   = 68214
ELEMENT_SET_NO = 999
REV_AT_EPOCH   = 397
BSTAR          = .22130012E-2
MEAN_MOTION_DOT = .449632E-2
MEAN_MOTION_DDOT = 0

