2026-052F               
1 68203U 26052F   26093.63234253  .00013435  00000+0  81093-3 0  9991
2 68203  97.5347 169.6080 0010657 194.7777 165.3143 15.10794559  2794
2026-052G               
1 68204U 26052G   26093.63175447  .00013321  00000+0  80319-3 0  9995
2 68204  97.5361 169.6043 0010178 197.6580 162.4298 15.10840463  2797
KZ-11 R/B               
1 68205U 26052H   26093.63207216  .00031527  20443-5  47258-3 0  9998
2 68205  97.3404 168.3958 0544147 313.1279  42.5610 14.67598235  2719
2026-052J               
1 68206U 26052J   26093.62427252  .00097189  33603-5  14146-2 0  9999
2 68206  97.3401 168.4047 0538546 313.1345  42.5993 14.69113206  2714
STARLINK-36986          
1 68207U 26053A   26093.61094363  .00136301  00000+0  70188-3 0  9991
2 68207  97.2830 329.1298 0001899  67.7626 292.3844 15.80795772  3993
STARLINK-37009          
1 68208U 26053B   26093.61019245  .00145748  00000+0  75025-3 0  9998
2 68208  97.2833 329.1294 0002098  89.3560 270.7949 15.80778284  3997
STARLINK-36948          
1 68209U 26053C   26093.60944185  .00162763  00000+0  83493-3 0  9992
2 68209  97.2830 329.1313 0001966 105.8482 254.3003 15.80809599  3978
STARLINK-37119          
1 68210U 26053D   26093.60869083  .00152998  00000+0  78569-3 0  9994
2 68210  97.2830 329.1321 0002476 106.7942 253.3598 15.80810650  3997
STARLINK-37120          
1 68211U 26053E   26093.60793909  .00134748  00000+0  69396-3 0  9999
2 68211  97.2830 329.1328 0001854 103.6519 256.4956 15.80797746  3970
STARLINK-37117          
1 68212U 26053F   26093.60718827  .00113230  00000+0  58485-3 0  9996
2 68212  97.2830 329.1340 0002025  96.7409 263.4090 15.80791751  3995
STARLINK-37116          
1 68213U 26053G   26093.60643561  .00154755  00000+0  79658-3 0  9991
2 68213  97.2833 329.1350 0001720  95.5114 264.6350 15.80755888  3994
STARLINK-35854          
1 68214U 26053H   26093.60566841  .00449632  00000+0  22130-2 0  9990
2 68214  97.2827 329.1358 0002371 136.6050 223.5405 15.80977073  3970
